[{"OBJECT_NAME":"STARLINK-32664","OBJECT_ID":"2024-229N","EPOCH":"2026-03-09T22:00:01.999584","MEAN_MOTION":15.32430196,"ECCENTRICITY":0.00073798,"INCLINATION":43.0018,"RA_OF_ASC_NODE":269.0847,"ARG_OF_PERICENTER":279.2302,"MEAN_ANOMALY":315.7732,"EPHEMERIS_TYPE":0,"CLASSIFICATION_TYPE":"U","NORAD_CAT_ID":62204,"ELEMENT_SET_NO":999,"REV_AT_EPOCH":570,"BSTAR":0.0043606707,"MEAN_MOTION_DOT":0.00141936,"MEAN_MOTION_DDOT":0},{"OBJECT_NAME":"TRANSPORTER-12 OBJECT AY","OBJECT_ID":"2025-009AY","EPOCH":"2026-03-09T05:15:09.595584","MEAN_MOTION":15.3641145,"ECCENTRICITY":8.363e-5,"INCLINATION":97.4067,"RA_OF_ASC_NODE":153.6184,"ARG_OF_PERICENTER":214.022,"MEAN_ANOMALY":146.097,"EPHEMERIS_TYPE":0,"CLASSIFICATION_TYPE":"U","NORAD_CAT_ID":62655,"ELEMENT_SET_NO":999,"REV_AT_EPOCH":6382,"BSTAR":0.00083878699,"MEAN_MOTION_DOT":0.00029789,"MEAN_MOTION_DDOT":0}]
